NORAD_CAT_ID,OBJECT_NAME,OBJECT_TYPE,EPOCH,MEAN_MOTION,ECCENTRICITY,INCLINATION,RA_OF_ASC_NODE,ARG_OF_PERICENTER,MEAN_ANOMALY,BSTAR,MEAN_MOTION_DOT,MEAN_MOTION_DDOT,TLE_LINE0,TLE_LINE1,TLE_LINE2,SEMIMAJOR_AXIS,PERIOD,APOGEE,PERIGEE,DECAYED
54777.0,STARLINK-5468,PAYLOAD,2023-11-27 19:10:05,15.08817231,0.0001568,53.2148,182.908,64.3576,295.7578,-0.00015916,-2.819e-05,0.0,0 STARLINK-5468,1 54777U 22175V   23331.79867696 -.00002819  00000-0 -15916-3 0  9994,2 54777  53.2148 182.9080 0001568  64.3576 295.7578 15.08817231 52022,6917.95,95.439,540.9,538.73,0.0
54777.0,STARLINK-5468,PAYLOAD,2023-11-27 20:45:28,15.08825561,0.0001419,53.2153,182.6073,105.432,254.6829,-0.00015542,-2.76e-05,0.0,0 STARLINK-5468,1 54777U 22175V   23331.86491417 -.00002760  00000-0 -15542-3 0  9996,2 54777  53.2153 182.6073 0001419 105.4320 254.6829 15.08825561 54194,6917.925,95.438,540.771,538.808,0.0
54777.0,STARLINK-5468,PAYLOAD,2023-11-28 14:14:43,15.0883843,0.0001502,53.2151,179.3335,113.8704,246.2446,0.00030267,4.532e-05,0.0,0 STARLINK-5468,1 54777U 22175V   23332.59355702  .00004532  00000-0  30267-3 0  9991,2 54777  53.2151 179.3335 0001502 113.8704 246.2446 15.08838430 54302,6917.885,95.438,540.789,538.711,0.0
54777.0,STARLINK-5468,PAYLOAD,2023-11-28 20:36:16,15.08850527,0.0001436,53.2143,178.1504,81.7204,278.3951,0.0011988,0.00018848,0.0,0 STARLINK-5468,1 54777U 22175V   23332.85851976  .00018848  00000-0  11988-2 0  9997,2 54777  53.2143 178.1504 0001436  81.7204 278.3951 15.08850527 52184,6917.848,95.437,540.707,538.72,0.0
54777.0,STARLINK-5468,PAYLOAD,2023-11-28 23:47:02,15.08857692,0.0001365,53.214,177.5572,82.9596,277.1551,0.0010642,0.00016697,0.0,0 STARLINK-5468,1 54777U 22175V   23332.99099725  .00016697  00000-0  10642-2 0  9994,2 54777  53.2140 177.5572 0001365  82.9596 277.1551 15.08857692 54362,6917.826,95.436,540.636,538.747,0.0
54777.0,STARLINK-5468,PAYLOAD,2023-11-29 18:51:39,15.08863774,0.0001429,53.2143,173.9872,84.9009,275.2146,0.00052398,8.066e-05,0.0,0 STARLINK-5468,1 54777U 22175V   23333.78586812  .00008066  00000-0  52398-3 0  9996,2 54777  53.2143 173.9872 0001429  84.9009 275.2146 15.08863774 52321,6917.808,95.436,540.661,538.684,0.0
54777.0,STARLINK-5468,PAYLOAD,2023-11-30 12:20:53,15.0885518,0.0001495,53.2143,170.7234,68.9089,291.2063,0.00020372,2.957e-05,0.0,0 STARLINK-5468,1 54777U 22175V   23334.51450464  .00002957  00000-0  20372-3 0  9991,2 54777  53.2143 170.7234 0001495  68.9089 291.2063 15.08855180 52431,6917.834,95.437,540.733,538.665,0.0
54777.0,STARLINK-5468,PAYLOAD,2023-11-30 18:42:25,15.08851202,0.0001482,53.2145,169.5263,110.0879,250.0273,6.3363e-05,7.21e-06,0.0,0 STARLINK-5468,1 54777U 22175V   23334.77946387  .00000721  00000-0  63363-4 0  9998,2 54777  53.2145 169.5263 0001482 110.0879 250.0273 15.08851202 52474,6917.846,95.437,540.736,538.686,0.0
54777.0,STARLINK-5468,PAYLOAD,2023-12-01 12:11:40,15.08842001,0.0001494,53.2148,166.257,104.8466,255.2691,-3.0669e-05,-7.76e-06,0.0,0 STARLINK-5468,1 54777U 22175V   23335.50810534 -.00000776  00000-0 -30669-4 0  9999,2 54777  53.2148 166.2570 0001494 104.8466 255.2691 15.08842001 52588,6917.874,95.437,540.773,538.706,0.0
54777.0,STARLINK-5468,PAYLOAD,2023-12-01 20:08:36,15.0884077,0.000138,53.2144,164.7698,93.4804,266.6345,0.00017194,2.45e-05,0.0,0 STARLINK-5468,1 54777U 22175V   23335.83930705  .00002450  00000-0  17194-3 0  9994,2 54777  53.2144 164.7698 0001380  93.4804 266.6345 15.08840770 54799,6917.878,95.438,540.698,538.788,0.0
54777.0,STARLINK-5468,PAYLOAD,2023-12-02 19:59:22,15.08849636,0.0001274,53.2145,160.3098,82.9824,277.1313,0.00020605,2.994e-05,0.0,0 STARLINK-5468,1 54777U 22175V   23336.83290020  .00002994  00000-0  20605-3 0  9998,2 54777  53.2145 160.3098 0001274  82.9824 277.1313 15.08849636 52782,6917.851,95.437,540.597,538.835,0.0
54777.0,STARLINK-5468,PAYLOAD,2023-12-03 11:53:14,15.08836128,0.0001554,53.2155,157.3399,66.1252,293.9902,3.5603e-06,-2.31e-06,0.0,0 STARLINK-5468,1 54777U 22175V   23337.49530636 -.00000231  00000-0  35603-5 0  9990,2 54777  53.2155 157.3399 0001554  66.1252 293.9902 15.08836128 52886,6917.892,95.438,540.832,538.682,0.0
54777.0,STARLINK-5468,PAYLOAD,2023-12-03 19:50:10,15.08832256,0.0001399,53.215,155.8482,79.1485,280.9664,-6.3066e-05,-1.291e-05,0.0,0 STARLINK-5468,1 54777U 22175V   23337.82651241 -.00001291  00000-0 -63066-4 0  9994,2 54777  53.2150 155.8482 0001399  79.1485 280.9664 15.08832256 52931,6917.904,95.438,540.737,538.801,0.0
54777.0,STARLINK-5468,PAYLOAD,2023-12-04 11:44:02,15.08831315,0.0001389,53.215,152.8744,80.7473,279.3676,-5.6736e-05,-1.191e-05,0.0,0 STARLINK-5468,1 54777U 22175V   23338.48891686 -.00001191  00000-0 -56736-4 0  9991,2 54777  53.2150 152.8744 0001389  80.7473 279.3676 15.08831315 55194,6917.907,95.438,540.733,538.811,0.0
54777.0,STARLINK-5468,PAYLOAD,2023-12-05 11:34:49,15.08834743,0.0001451,53.2147,148.4148,77.8408,282.2747,0.00023788,3.499e-05,0.0,0 STARLINK-5468,1 54777U 22175V   23339.48252109  .00003499  00000-0  23788-3 0  9994,2 54777  53.2147 148.4148 0001451  77.8408 282.2747 15.08834743 53181,6917.896,95.438,540.765,538.758,0.0
54777.0,STARLINK-5468,PAYLOAD,2023-12-06 11:25:35,15.08847578,0.0001428,53.2155,143.9542,77.9404,282.1748,0.00012078,1.635e-05,0.0,0 STARLINK-5468,1 54777U 22175V   23340.47610965  .00001635  00000-0  12078-3 0  9993,2 54777  53.2155 143.9542 0001428  77.9404 282.1748 15.08847578 53336,6917.857,95.437,540.71,538.734,0.0
54777.0,STARLINK-5468,PAYLOAD,2023-12-07 20:48:41,15.08845883,0.0001462,53.215,137.7088,80.0752,280.0405,5.9972e-05,6.67e-06,0.0,0 STARLINK-5468,1 54777U 22175V   23341.86714957  .00000667  00000-0  59972-4 0  9992,2 54777  53.2150 137.7088 0001462  80.0752 280.0405 15.08845883 53543,6917.862,95.437,540.739,538.716,0.0
54777.0,STARLINK-5468,PAYLOAD,2023-12-08 11:07:10,15.08839726,0.0001476,53.2148,135.0325,79.2046,280.9112,-5.4589e-05,-1.157e-05,0.0,0 STARLINK-5468,1 54777U 22175V   23342.46331093 -.00001157  00000-0 -54589-4 0  9991,2 54777  53.2148 135.0325 0001476  79.2046 280.9112 15.08839726 55798,6917.881,95.438,540.767,538.725,0.0
54777.0,STARLINK-5468,PAYLOAD,2023-12-09 18:54:53,15.08841612,0.0001703,53.2144,129.0859,75.309,284.8091,4.0266e-05,3.53e-06,0.0,0 STARLINK-5468,1 54777U 22175V   23343.78811359  .00000353  00000-0  40266-4 0  9997,2 54777  53.2144 129.0859 0001703  75.3090 284.8091 15.08841612 53837,6917.875,95.437,540.919,538.562,0.0
54777.0,STARLINK-5468,PAYLOAD,2023-12-10 13:59:30,15.08839956,0.0001472,53.2156,125.5138,89.779,270.3371,-1.0783e-06,-3.05e-06,0.0,0 STARLINK-5468,1 54777U 22175V   23344.58299300 -.00000305  00000-0 -10783-5 0  9993,2 54777  53.2156 125.5138 0001472  89.7790 270.3371 15.08839956 56113,6917.881,95.438,540.764,538.727,0.0
54777.0,STARLINK-5468,PAYLOAD,2023-12-10 17:10:17,15.08838123,0.0001466,53.2167,124.9213,77.9041,282.2116,5.2302e-05,5.44e-06,0.0,0 STARLINK-5468,1 54777U 22175V   23344.71547539  .00000544  00000-0  52302-4 0  9993,2 54777  53.2167 124.9213 0001466  77.9041 282.2116 15.08838123 56139,6917.886,95.438,540.765,538.737,0.0
54777.0,STARLINK-5468,PAYLOAD,2023-12-11 13:50:18,15.08835954,0.0001481,53.2171,121.0565,79.3992,280.7167,6.2485e-05,7.07e-06,0.0,0 STARLINK-5468,1 54777U 22175V   23345.57659811  .00000707  00000-0  62485-4 0  9999,2 54777  53.2171 121.0565 0001481  79.3992 280.7167 15.08835954 56262,6917.893,95.438,540.782,538.733,0.0
54777.0,STARLINK-5468,PAYLOAD,2023-12-11 17:01:04,15.08837309,0.0001462,53.2174,120.4629,76.6545,283.461,7.3411e-05,8.8e-06,0.0,0 STARLINK-5468,1 54777U 22175V   23345.70907752  .00000880  00000-0  73411-4 0  9997,2 54777  53.2174 120.4629 0001462  76.6545 283.4610 15.08837309 56283,6917.889,95.438,540.765,538.742,0.0
54777.0,STARLINK-5468,PAYLOAD,2023-12-12 13:41:05,15.08839786,0.0001558,53.2179,116.5961,72.0112,288.105,7.095e-05,8.41e-06,0.0,0 STARLINK-5468,1 54777U 22175V   23346.57019784  .00000841  00000-0  70950-4 0  9994,2 54777  53.2179 116.5961 0001558  72.0112 288.1050 15.08839786 56415,6917.881,95.438,540.824,538.668,0.0
54777.0,STARLINK-5468,PAYLOAD,2023-12-12 15:16:28,15.08840693,0.0001583,53.2177,116.2991,71.1837,288.9327,7.8668e-05,9.64e-06,0.0,0 STARLINK-5468,1 54777U 22175V   23346.63643724  .00000964  00000-0  78668-4 0  9998,2 54777  53.2177 116.2991 0001583  71.1837 288.9327 15.08840693 54260,6917.878,95.438,540.838,538.648,0.0
54777.0,STARLINK-5468,PAYLOAD,2023-12-13 13:31:51,15.08844116,0.0001379,53.2172,112.1382,78.8545,281.2602,8.168e-05,1.012e-05,0.0,0 STARLINK-5468,1 54777U 22175V   23347.56379364  .00001012  00000-0  81680-4 0  9990,2 54777  53.2172 112.1382 0001379  78.8545 281.2602 15.08844116 56568,6917.868,95.437,540.687,538.779,0.0
54777.0,STARLINK-5468,PAYLOAD,2023-12-13 15:07:14,15.08845294,0.0001413,53.2174,111.8386,78.2257,281.8894,9.1183e-05,1.164e-05,0.0,0 STARLINK-5468,1 54777U 22175V   23347.63003236  .00001164  00000-0  91183-4 0  9997,2 54777  53.2174 111.8386 0001413  78.2257 281.8894 15.08845294 56571,6917.864,95.437,540.707,538.752,0.0
54777.0,STARLINK-5468,PAYLOAD,2023-12-14 11:47:15,15.08840569,0.0001462,53.2178,107.9714,96.7713,263.3446,2.0278e-05,3.5e-07,0.0,0 STARLINK-5468,1 54777U 22175V   23348.49115605  .00000035  00000-0  20278-4 0  9999,2 54777  53.2178 107.9714 0001462  96.7713 263.3446 15.08840569 54545,6917.879,95.438,540.755,538.732,0.0
54777.0,STARLINK-5468,PAYLOAD,2023-12-14 13:22:39,15.08840364,0.0001457,53.2179,107.6737,96.2045,263.9114,1.6193e-05,-3e-07,0.0,0 STARLINK-5468,1 54777U 22175V   23348.55739619 -.00000030  00000-0  16193-4 0  9990,2 54777  53.2179 107.6737 0001457  96.2045 263.9114 15.08840364 56717,6917.879,95.438,540.752,538.736,0.0
54777.0,STARLINK-5468,PAYLOAD,2023-12-14 14:58:02,15.08840728,0.0001453,53.2178,107.3753,95.2698,264.846,1.8133e-05,1e-08,0.0,0 STARLINK-5468,1 54777U 22175V   23348.62363566  .00000001  00000-0  18133-4 0  9995,2 54777  53.2178 107.3753 0001453  95.2698 264.8460 15.08840728 56729,6917.878,95.438,540.748,538.738,0.0
